{
    "links": {
        "self": "http://www.neowsapp.com/rest/v1/neo/54054271?api_key=iIulBulltgU6a56xZRHN4H3l9WmuAYTsLGpBGhQ2"
    },
    "id": "54054271",
    "neo_reference_id": "54054271",
    "name": "(2020 RC5)",
    "designation": "2020 RC5",
    "nasa_jpl_url": "http://ssd.jpl.nasa.gov/sbdb.cgi?sstr=54054271",
    "absolute_magnitude_h": 21.801,
    "estimated_diameter": {
        "kilometers": {
            "estimated_diameter_min": 0.1159724886,
            "estimated_diameter_max": 0.259322368
        },
        "meters": {
            "estimated_diameter_min": 115.9724886054,
            "estimated_diameter_max": 259.3223680414
        },
        "miles": {
            "estimated_diameter_min": 0.0720619412,
            "estimated_diameter_max": 0.1611353992
        },
        "feet": {
            "estimated_diameter_min": 380.487179516,
            "estimated_diameter_max": 850.795197965
        }
    },
    "is_potentially_hazardous_asteroid": false,
    "close_approach_data": [
        {
            "close_approach_date": "2020-08-24",
            "close_approach_date_full": "2020-Aug-24 14:20",
            "epoch_date_close_approach": 1598278800000,
            "relative_velocity": {
                "kilometers_per_second": "7.3465257547",
                "kilometers_per_hour": "26447.4927167769",
                "miles_per_hour": "16433.4434605995"
            },
            "miss_distance": {
                "astronomical": "0.0739788418",
                "lunar": "28.7777694602",
                "kilometers": "11067077.158346966",
                "miles": "6876762.8664654908"
            },
            "orbiting_body": "Mars"
        },
        {
            "close_approach_date": "2023-07-28",
            "close_approach_date_full": "2023-Jul-28 18:44",
            "epoch_date_close_approach": 1690569840000,
            "relative_velocity": {
                "kilometers_per_second": "3.812009391",
                "kilometers_per_hour": "13723.233807774",
                "miles_per_hour": "8527.083806836"
            },
            "miss_distance": {
                "astronomical": "0.3519137849",
                "lunar": "136.8944623261",
                "kilometers": "52645552.644678163",
                "miles": "32712429.5178901294"
            },
            "orbiting_body": "Earth"
        },
        {
            "close_approach_date": "2026-07-15",
            "close_approach_date_full": "2026-Jul-15 06:36",
            "epoch_date_close_approach": 1784097360000,
            "relative_velocity": {
                "kilometers_per_second": "3.3052897963",
                "kilometers_per_hour": "11899.0432667384",
                "miles_per_hour": "7393.6027453798"
            },
            "miss_distance": {
                "astronomical": "0.222277292",
                "lunar": "86.465866588",
                "kilometers": "33252209.43256804",
                "miles": "20661964.833357352"
            },
            "orbiting_body": "Earth"
        },
        {
            "close_approach_date": "2029-07-05",
            "close_approach_date_full": "2029-Jul-05 11:27",
            "epoch_date_close_approach": 1877945220000,
            "relative_velocity": {
                "kilometers_per_second": "3.3040708582",
                "kilometers_per_hour": "11894.6550896966",
                "miles_per_hour": "7390.8761028173"
            },
            "miss_distance": {
                "astronomical": "0.2965934365",
                "lunar": "115.3748467985",
                "kilometers": "44369746.356380255",
                "miles": "27570081.944167319"
            },
            "orbiting_body": "Earth"
        }
    ],
    "orbital_data": {
        "orbit_id": "4",
        "orbit_determination_date": "2020-10-12 07:28:10",
        "first_observation_date": "2020-09-10",
        "last_observation_date": "2020-10-11",
        "data_arc_in_days": 31,
        "observations_used": 24,
        "orbit_uncertainty": "6",
        "minimum_orbit_intersection": ".22292",
        "jupiter_tisserand_invariant": "3.628",
        "epoch_osculation": "2459000.5",
        "eccentricity": ".4185434561461827",
        "semi_major_axis": "2.098379864224874",
        "inclination": "5.249630270325952",
        "ascending_node_longitude": "51.89382558210541",
        "orbital_period": "1110.259740812254",
        "perihelion_distance": "1.220116703544638",
        "perihelion_argument": "243.6632314433201",
        "aphelion_distance": "2.976643024905111",
        "perihelion_time": "2459018.177051539167",
        "mean_anomaly": "354.2682434387431",
        "mean_motion": ".3242484499497641",
        "equinox": "J2000",
        "orbit_class": {
            "orbit_class_type": "AMO",
            "orbit_class_description": "Near-Earth asteroid orbits similar to that of 1221 Amor",
            "orbit_class_range": "1.017 AU < q (perihelion) < 1.3 AU"
        }
    },
    "is_sentry_object": false
}